******************************************************************************* Revised : Jul 31, 2013                  Sun                                 10 PHYSICAL PROPERTIES (revised Jan 16, 2014):  GM (10^11 km^3/s^2)   = 1.3271244004193938  Mass (10^30 kg)   ~ 1.988544  Radius (photosphere)  = 6.963(10^5) km  Angular diam at 1 AU  = 1919.3"  Solar Radius (IAU)    = 6.955(10^5) km  Mean density          = 1.408 g/cm^3  Surface gravity       =  274.0 m/s^2    Moment of inertia     = 0.059  Escape velocity       =  617.7 km/s     Adopted sidereal per  = 25.38 d  Pole (RA,DEC in deg.) =  286.13,63.87   Obliquity to ecliptic = 7 deg 15'          Solar constant (1 AU) = 1367.6 W/m^2    Solar lumin.(erg/s)   =  3.846(10^33)  Mass-energy conv rate = 4.3(10^12 gm/s) Effective temp (K)    =  5778  Surf. temp (photosphr)= 6600 K (bottom) Surf. temp (photosphr)=  4400 K (top)  Photospheric depth    = ~400 km         Chromospheric depth   = ~2500 km  Sunspot cycle         = 11.4 yr         Cycle 22 sunspot min. =  1991 A.D.  Motn. rel to nrby strs= apex : RA=271 deg; DEC=+30 deg                          speed: 19.4 km/s = 0.0112 AU/day  Motn. rel to 2.73K BB = apex : l=264.7+-0.8; b=48.2+-0.5                          speed: 369 +-11 km/s*******************************************************************************  *******************************************************************************Ephemeris / WWW_USER Thu Sep 14 02:53:09 2017 Pasadena, USA      / Horizons    *******************************************************************************Target body name: Sun (10)                        {source: DE431mx}Center body name: Moon (301)                      {source: DE431mx}Center-site name: (user defined site below)*******************************************************************************Start time      : A.D. 1969-Jan-01 00:00:00.0000 UT      Stop  time      : A.D. 1977-Dec-31 00:00:00.0000 UT      Step-size       : 5 minutes*******************************************************************************Target pole/equ : IAU_SUN                         {East-longitude +}Target radii    : 696000.0 x 696000.0 x 696000.0 k{Equator, meridian, pole}    Center geodetic : 336.575440,-3.0108400,-2.16E-13 {E-lon(deg),Lat(deg),Alt(km)}Center cylindric: 336.575440,1735.00172,-91.25674 {E-lon(deg),Dxy(km),Dz(km)}Center pole/equ : IAU_MOON                        {East-longitude +}Center radii    : 1737.4 x 1737.4 x 1737.4 km     {Equator, meridian, pole}    Target primary  : SunVis. interferer : EARTH (R_eq= 6378.137) km       {source: DE431mx}Rel. light bend : Sun, EARTH                      {source: DE431mx}Rel. lght bnd GM: 1.3271E+11, 3.9860E+05 km^3/s^2                              Atmos refraction: NO (AIRLESS)RA format       : HMSTime format     : BOTHRTS-only print  : TVH      RTS elevation   : 0. degreesEOP file        : eop.170913.p171205                                           EOP coverage    : DATA-BASED 1962-JAN-20 TO 2017-SEP-13. PREDICTS-> 2017-DEC-04Units conversion: 1 au= 149597870.700 km, c= 299792.458 km/s, 1 day= 86400.0 s ******************************************************************************* Date__(UT)__HR:MN Date_________JDUT     Azi_(a-appr)_Elev**********************************************************$$SOE 1969-Jan-05 13:15 2440227.052083333 *t  358.4034  88.5495 1969-Jan-12 23:44 2440234.488888889  s  268.5451  -0.2935 1969-Jan-27 17:08 2440249.213888889 *r   91.3212  -0.2521 1969-Feb-04 03:47 2440256.657638889 *t  359.1418  88.1675 1969-Feb-11 14:11 2440264.090972222  s  269.0238  -0.3102 1969-Feb-26 07:25 2440278.809027778 *r   90.6794  -0.2365 1969-Mar-05 17:44 2440286.238888889 *t    0.1025  87.4512 1969-Mar-13 03:53 2440293.661805556  s  269.7838  -0.2910 1969-Mar-27 20:52 2440308.369444444 *r   89.8591  -0.2434 1969-Apr-04 06:56 2440315.788888889 *t  359.6807  86.6212 1969-Apr-11 16:40 2440323.194444444  s  270.5932  -0.2673 1969-Apr-26 09:24 2440337.891666667 *r   89.0980  -0.2382 1969-May-03 19:08 2440345.297222222 *t  359.9516  85.9150 1969-May-11 04:37 2440352.692361111  s  271.2252  -0.2712 1969-May-25 21:06 2440367.379166667 *r   88.5985  -0.2244 1969-Jun-02 06:40 2440374.777777778 *t  359.5144  85.5157 1969-Jun-09 15:54 2440382.162500000  s  271.5212  -0.2747 1969-Jun-24 08:08 2440396.838888889 *r   88.4827  -0.2555 1969-Jul-01 17:37 2440404.234027778 *t  359.9261  85.5174 1969-Jul-09 02:51 2440411.618750000  s  271.4143  -0.2691 1969-Jul-23 19:05 2440426.295138889 *r   88.7677  -0.2300 1969-Jul-31 04:39 2440433.693750000 *t  359.3990  85.9135 1969-Aug-07 13:58 2440441.081944444  s  270.9315  -0.3002 1969-Aug-22 06:12 2440455.758333333 *r   89.3857  -0.2380 1969-Aug-29 15:56 2440463.163888889 *t  359.6339  86.6058 1969-Sep-06 01:30 2440470.562500000  s  270.1953  -0.2916 1969-Sep-20 17:59 2440485.249305556 *r   90.1799  -0.2272 1969-Sep-28 03:58 2440492.665277778 *t  359.6951  87.4190 1969-Oct-05 13:52 2440500.077777778  s  269.3914  -0.2967 1969-Oct-20 06:36 2440514.775000000 *r   90.9422  -0.2531 1969-Oct-27 17:00 2440522.208333333 *t  358.7825  88.1331 1969-Nov-04 03:09 2440529.631250000  s  268.7432  -0.2906 1969-Nov-18 20:13 2440544.342361111 *r   91.4494  -0.2616 1969-Nov-26 06:52 2440551.786111111 *t  358.8553  88.5364 1969-Dec-03 17:16 2440559.219444444  s  268.4468  -0.2908 1969-Dec-18 10:40 2440573.944444444 *r   91.5373  -0.2291 1969-Dec-25 21:19 2440581.388194445 *t  359.7976  88.4945 1970-Jan-02 07:48 2440588.825000000  s  268.6048  -0.2716 1970-Jan-17 01:17 2440603.553472222 *r   91.1729  -0.2658 1970-Jan-24 11:56 2440610.997222222 *t  359.9160  88.0113 1970-Jan-31 22:20 2440618.430555556  s  269.1718  -0.2782 1970-Feb-15 15:44 2440633.155555556 *r   90.4617  -0.2687 1970-Feb-23 02:13 2440640.592361111 *t  359.4222  87.2362 1970-Mar-02 12:22 2440648.015277778  s  269.9714  -0.2968 1970-Mar-17 05:31 2440662.729861111 *r   89.6255  -0.2658 1970-Mar-24 15:40 2440670.152777778 *t  359.7539  86.4065 1970-Apr-01 01:29 2440677.561805556  s  270.7637  -0.2671 1970-Apr-15 18:23 2440692.265972222 *r   88.9095  -0.2652 1970-Apr-23 04:12 2440699.675000000 *t    0.0172  85.7587 1970-Apr-30 13:46 2440707.073611111  s  271.3228  -0.2673 1970-May-15 06:25 2440721.767361111 *r   88.5021  -0.2258 1970-May-22 15:59 2440729.165972222 *t  359.6765  85.4599 1970-May-30 01:18 2440736.554166667  s  271.5101  -0.2705 1970-Jun-13 17:37 2440751.234027778 *r   88.5018  -0.2506 1970-Jun-21 03:06 2440758.629166667 *t  359.8431  85.5752 1970-Jun-28 12:25 2440766.017361111  s  271.2883  -0.2984 1970-Jul-13 04:34 2440780.690277778 *r   88.8915  -0.2202 1970-Jul-20 14:03 2440788.085416667 *t  359.6444  86.0655 1970-Jul-27 23:22 2440795.473611111  s  270.7233  -0.2807 1970-Aug-11 15:31 2440810.146527778 *r   89.5738  -0.2266 1970-Aug-19 01:10 2440817.548611111 *t  359.7327  86.8046 1970-Aug-26 10:44 2440824.947222222  s  269.9533  -0.3017 1970-Sep-10 02:58 2440839.623611111 *r   90.3748  -0.2376 1970-Sep-17 12:57 2440847.039583333 *t  359.2273  87.6036 1970-Sep-24 22:46 2440854.448611111  s  269.1786  -0.3037 1970-Oct-09 15:15 2440869.135416667 *r   91.0834  -0.2587 1970-Oct-17 01:34 2440876.565277778 *t  359.3876  88.2468 1970-Oct-24 11:43 2440883.988194444  s  268.6113  -0.3066 1970-Nov-08 04:37 2440898.692361111 *r   91.4923  -0.2372 1970-Nov-15 15:11 2440906.132638889 *t  358.8592  88.5419 1970-Nov-23 01:30 2440913.562500000  s  268.4267  -0.2816 1970-Dec-07 18:49 2440928.284027778 *r   91.4696  -0.2346 1970-Dec-15 05:28 2440935.727777778 *t  359.9214  88.3855 1970-Dec-22 15:57 2440943.164583333  s  268.6922  -0.2884 1971-Jan-06 09:26 2440957.893055555 *r   91.0081  -0.2641 1971-Jan-13 20:10 2440965.340277778 *t  359.1507  87.8116 1971-Jan-21 06:34 2440972.773611111  s  269.3374  -0.3088 1971-Feb-05 00:03 2440987.502083333 *r   90.2418  -0.2676 1971-Feb-12 10:32 2440994.938888889 *t  359.9702  86.9948 1971-Feb-19 20:46 2441002.365277778  s  270.1665  -0.2955 1971-Mar-06 14:10 2441017.090277778 *r   89.4070  -0.2474 1971-Mar-14 00:19 2441024.513194445 *t  359.9874  86.1827 1971-Mar-21 10:18 2441031.929166667  s  270.9253  -0.3074 1971-Apr-05 03:22 2441046.640277778 *r   88.7523  -0.2528 1971-Apr-12 13:16 2441054.052777778 *t  359.6917  85.6085 1971-Apr-19 22:55 2441061.454861111  s  271.4020  -0.3000 1971-May-04 15:39 2441076.152083333 *r   88.4499  -0.2396 1971-May-12 01:18 2441083.554166667 *t  359.5678  85.4192 1971-May-19 10:42 2441090.945833333  s  271.4787  -0.2900 1971-Jun-03 03:06 2441105.629166667 *r   88.5658  -0.2339 1971-Jun-10 12:35 2441113.024305556 *t  359.6905  85.6485 1971-Jun-17 21:54 2441120.412500000  s  271.1510  -0.2871 1971-Jul-02 14:03 2441135.085416667 *r   89.0555  -0.2245 1971-Jul-09 23:32 2441142.480555556 *t  359.5392  86.2250 1971-Jul-17 08:51 2441149.868750000  s  270.5133  -0.2780 1971-Aug-01 00:50 2441164.534722222 *r   89.7912  -0.2579 1971-Aug-08 10:29 2441171.936805556 *t  359.8412  86.9981 1971-Aug-15 20:03 2441179.335416667  s  269.7273  -0.3033 1971-Aug-30 12:07 2441194.004861111 *r   90.5812  -0.2279 1971-Sep-06 22:01 2441201.417361111 *t  359.0941  87.7694 1971-Sep-14 07:45 2441208.822916667  s  268.9989  -0.2887 1971-Sep-29 00:04 2441223.502777778 *r   91.2234  -0.2491 1971-Oct-06 10:18 2441230.929166667 *t  359.1097  88.3319 1971-Oct-13 20:22 2441238.348611111  s  268.5240  -0.3069 1971-Oct-28 13:01 2441253.042361111 *r   91.5306  -0.2638 1971-Nov-04 23:35 2441260.482638889 *t  358.5784  88.5165 1971-Nov-12 09:49 2441267.909027778  s  268.4539  -0.2837 1971-Nov-27 02:58 2441282.623611111 *r   91.3967  -0.2527 1971-Dec-04 13:37 2441290.067361111 *t  359.9270  88.2518 1971-Dec-12 00:01 2441297.500694444  s  268.8250  -0.2723 1971-Dec-26 17:35 2441312.232638889 *r   90.8455  -0.2288 1972-Jan-03 04:14 2441319.676388889 *t  359.5186  87.6012 1972-Jan-10 14:38 2441327.109722222  s  269.5366  -0.3040 1972-Jan-25 08:17 2441341.845138889 *r   90.0399  -0.2376 1972-Feb-01 18:46 2441349.281944444 *t  359.9506  86.7599 1972-Feb-09 05:00 2441356.708333333  s  270.3782  -0.2846 1972-Feb-23 22:34 2441371.440277778 *r   89.2267  -0.2667 1972-Mar-02 08:53 2441378.870138889 *t  359.6835  85.9836 1972-Mar-09 18:52 2441386.286111111  s  271.0906  -0.3028 1972-Mar-24 12:11 2441401.007638889 *r   88.6438  -0.2379 1972-Mar-31 22:10 2441408.423611111 *t  359.5621  85.4973 1972-Apr-08 07:49 2441415.825694445  s  271.4757  -0.2798 1972-Apr-23 00:48 2441430.533333333 *r   88.4512  -0.2242 1972-Apr-30 10:27 2441437.935416667 *t  359.8463  85.4244 1972-May-07 19:56 2441445.330555555  s  271.4389  -0.2818 1972-May-22 12:25 2441460.017361111 *r   88.6846  -0.2532 1972-May-29 21:59 2441467.415972222 *t  359.6657  85.7658 1972-Jun-06 07:18 2441474.804166667  s  271.0109  -0.2678 1972-Jun-20 23:27 2441489.477083333 *r   89.2633  -0.2502 1972-Jun-28 09:01 2441496.875694444 *t  359.2899  86.4188 1972-Jul-05 18:20 2441504.263888889  s  270.3125  -0.2829 1972-Jul-20 10:14 2441518.926388889 *r   90.0345  -0.2569 1972-Jul-27 19:53 2441526.328472222 *t  359.4631  87.2120 1972-Aug-04 05:22 2441533.723611111  s  269.5274  -0.2833 1972-Aug-18 21:16 2441548.386111111 *r   90.8009  -0.2591 1972-Aug-26 07:10 2441555.798611111 *t  358.9298  87.9420 1972-Sep-02 16:49 2441563.200694445  s  268.8577  -0.2691 1972-Sep-17 08:58 2441577.873611111 *r   91.3626  -0.2604 1972-Sep-24 19:07 2441585.296527778 *t  359.3082  88.4148 1972-Oct-02 05:06 2441592.712500000  s  268.4840  -0.2900 1972-Oct-16 21:40 2441607.402777778 *r   91.5572  -0.2308 1972-Oct-24 08:04 2441614.836111111 *t  358.6897  88.4877 1972-Oct-31 18:13 2441622.259027778  s  268.5280  -0.2763 1972-Nov-15 11:17 2441636.970138889 *r   91.3150  -0.2340 1972-Nov-22 21:51 2441644.410416667 *t  359.4905  88.1215 1972-Nov-30 08:10 2441651.840277778  s  268.9950  -0.2749 1972-Dec-15 01:39 2441666.568750000 *r   90.6882  -0.2440 1972-Dec-22 12:18 2441674.012500000 *t  359.5957  87.4082 1972-Dec-29 22:37 2441681.442361111  s  269.7607  -0.2724 1973-Jan-13 16:21 2441696.181250000 *r   89.8576  -0.2553 1973-Jan-21 02:55 2441703.621527778 *t  359.8346  86.5595 1973-Jan-28 13:09 2441711.047916667  s  270.5954  -0.2821 1973-Feb-12 06:53 2441725.786805556 *r   89.0765  -0.2579 1973-Feb-19 17:17 2441733.220138889 *t  359.5956  85.8348 1973-Feb-27 03:16 2441740.636111111  s  271.2470  -0.2825 1973-Mar-13 20:50 2441755.368055556 *r   88.5774  -0.2262 1973-Mar-21 06:54 2441762.787500000 *t  359.6159  85.4468 1973-Mar-28 16:38 2441770.193055556  s  271.5288  -0.2826 1973-Apr-12 09:47 2441784.907638889 *r   88.4977  -0.2252 1973-Apr-19 19:36 2441792.316666667 *t  359.5045  85.4924 1973-Apr-27 05:05 2441799.711805556  s  271.3784  -0.2751 1973-May-11 21:44 2441814.405555556 *r   88.8394  -0.2347 1973-May-19 07:23 2441821.807638889 *t  359.4053  85.9399 1973-May-26 16:47 2441829.199305556  s  270.8542  -0.3041 1973-Jun-10 08:56 2441843.872222222 *r   89.4933  -0.2326 1973-Jun-17 18:30 2441851.270833333 *t  359.3190  86.6564 1973-Jun-25 03:49 2441858.659027778  s  270.1118  -0.2690 1973-Jul-09 19:43 2441873.321527778 *r   90.2841  -0.2479 1973-Jul-17 05:22 2441880.723611111 *t  359.1475  87.4530 1973-Jul-24 14:51 2441888.118750000  s  269.3386  -0.3024 1973-Aug-08 06:40 2441902.777777778 *r   91.0067  -0.2252 1973-Aug-15 16:24 2441910.183333333 *t  359.5284  88.1269 1973-Aug-23 02:03 2441917.585416667  s  268.7401  -0.2695 1973-Sep-06 18:07 2441932.254861111 *r   91.4760  -0.2237 1973-Sep-14 04:06 2441939.670833333 *t  359.2528  88.4997 1973-Sep-21 14:00 2441947.083333333  s  268.4732  -0.2841 1973-Oct-06 06:24 2441961.766666667 *r   91.5574  -0.2381 1973-Oct-13 16:38 2441969.193055556 *t  359.9365  88.4595 1973-Oct-21 02:47 2441976.615972222  s  268.6285  -0.2841 1973-Nov-04 19:41 2441991.320138889 *r   91.2093  -0.2431 1973-Nov-12 06:10 2441998.756944444 *t  359.4370  87.9978 1973-Nov-19 16:29 2442006.186805556  s  269.1793  -0.3119 1973-Dec-04 09:48 2442020.908333333 *r   90.5153  -0.2586 1973-Dec-11 20:22 2442028.348611111 *t    0.0969  87.2343 1973-Dec-19 06:46 2442035.781944444  s  269.9806  -0.3076 1974-Jan-03 00:30 2442050.520833333 *r   89.6712  -0.2327 1974-Jan-10 10:59 2442057.957638889 *t    0.1134  86.3932 1974-Jan-17 21:18 2442065.387500000  s  270.7929  -0.2992 1974-Feb-01 15:07 2442080.129861111 *r   88.9379  -0.2531 1974-Feb-09 01:31 2442087.563194444 *t  359.9402  85.7326 1974-Feb-16 11:40 2442094.986111111  s  271.3675  -0.3122 1974-Mar-03 05:19 2442109.721527778 *r   88.5319  -0.2336 1974-Mar-10 15:28 2442117.144444444 *t  359.8503  85.4486 1974-Mar-18 01:22 2442124.556944444  s  271.5402  -0.3057 1974-Apr-01 18:36 2442139.275000000 *r   88.5652  -0.2401 1974-Apr-09 04:35 2442146.690972222 *t  359.4071  85.6102 1974-Apr-16 14:09 2442154.089583333  s  271.2777  -0.2798 1974-May-01 06:53 2442168.786805556 *r   89.0079  -0.2481 1974-May-08 16:37 2442176.192361111 *t  359.8087  86.1529 1974-May-16 02:06 2442183.587500000  s  270.6698  -0.2826 1974-May-30 18:20 2442198.263888889 *r   89.7216  -0.2394 1974-Jun-07 03:59 2442205.665972222 *t  359.3623  86.9162 1974-Jun-14 13:23 2442213.057638889  s  269.8920  -0.2894 1974-Jun-29 05:12 2442227.716666667 *r   90.5139  -0.2607 1974-Jul-06 14:51 2442235.118750000 *t  359.7560  87.6978 1974-Jul-14 00:20 2442242.513888889  s  269.1492  -0.2803 1974-Jul-28 16:04 2442257.169444445 *r   91.1781  -0.2469 1974-Aug-05 01:48 2442264.575000000 *t  359.7273  88.2989 1974-Aug-12 11:27 2442271.977083333  s  268.6296  -0.2906 1974-Aug-27 03:16 2442286.636111111 *r   91.5457  -0.2624 1974-Sep-03 13:15 2442294.052083333 *t  359.0843  88.5621 1974-Sep-10 23:04 2442301.461111111  s  268.4739  -0.2904 1974-Sep-25 15:18 2442316.137500000 *r   91.5074  -0.2390 1974-Oct-03 01:27 2442323.560416667 *t  359.3057  88.4064 1974-Oct-10 11:26 2442330.976388889  s  268.7378  -0.2682 1974-Oct-25 04:15 2442345.677083333 *r   91.0587  -0.2322 1974-Nov-01 14:34 2442353.106944445 *t  359.7267  87.8565 1974-Nov-09 00:48 2442360.533333333  s  269.3622  -0.3028 1974-Nov-23 18:02 2442375.251388889 *r   90.3108  -0.2684 1974-Dec-01 04:31 2442382.688194444 *t    0.1362  87.0547 1974-Dec-08 14:50 2442390.118055556  s  270.1839  -0.2846 1974-Dec-23 08:34 2442404.856944445 *r   89.4709  -0.2552 1974-Dec-30 19:03 2442412.293750000 *t    0.1208  86.2347 1975-Jan-07 05:22 2442419.723611111  s  270.9559  -0.2924 1975-Jan-21 23:16 2442434.469444444 *r   88.7969  -0.2579 1975-Jan-29 09:45 2442441.906250000 *t  359.5895  85.6480 1975-Feb-05 19:54 2442449.329166667  s  271.4423  -0.3073 1975-Feb-20 13:38 2442464.068055556 *r   88.4925  -0.2630 1975-Feb-27 23:57 2442471.497916667 *t  359.6339  85.4712 1975-Mar-07 09:51 2442478.910416667  s  271.5030  -0.2745 1975-Mar-22 03:15 2442493.635416667 *r   88.6377  -0.2590 1975-Mar-29 13:19 2442501.054861111 *t  359.8053  85.7437 1975-Apr-05 23:03 2442508.460416667  s  271.1305  -0.2803 1975-Apr-20 15:52 2442523.161111111 *r   89.1728  -0.2636 1975-Apr-28 01:46 2442530.573611111 *t  359.6231  86.3685 1975-May-05 11:20 2442537.972222222  s  270.4493  -0.2901 1975-May-20 03:39 2442552.652083333 *r   89.9307  -0.2221 1975-May-27 13:23 2442560.057638889 *t  359.1001  87.1609 1975-Jun-03 22:47 2442567.449305556  s  269.6558  -0.2712 1975-Jun-18 14:41 2442582.111805555 *r   90.7080  -0.2382 1975-Jun-26 00:25 2442589.517361111 *t  358.7682  87.9092 1975-Jul-03 09:49 2442596.909027778  s  268.9564  -0.2695 1975-Jul-18 01:33 2442611.564583333 *r   91.3006  -0.2288 1975-Jul-25 11:17 2442618.970138889 *t  359.1300  88.4237 1975-Aug-01 20:51 2442626.368750000  s  268.5283  -0.2882 1975-Aug-16 12:35 2442641.024305556 *r   91.5595  -0.2527 1975-Aug-23 22:29 2442648.436805556 *t  359.2962  88.5705 1975-Aug-31 08:13 2442655.842361111  s  268.4861  -0.2903 1975-Sep-15 00:17 2442670.511805556 *r   91.4069  -0.2546 1975-Sep-22 10:21 2442677.931250000 *t  359.5808  88.3011 1975-Sep-29 20:15 2442685.343750000  s  268.8521  -0.2782 1975-Oct-14 12:54 2442700.037500000 *r   90.8679  -0.2391 1975-Oct-21 23:08 2442707.463888889 *t  359.4398  87.6716 1975-Oct-29 09:12 2442714.883333333  s  269.5404  -0.2852 1975-Nov-13 02:26 2442729.601388889 *r   90.0783  -0.2388 1975-Nov-20 12:45 2442737.031250000 *t    0.1181  86.8456 1975-Nov-27 22:59 2442744.457638889  s  270.3672  -0.2761 1975-Dec-12 16:43 2442759.196527778 *r   89.2602  -0.2518 1975-Dec-20 03:12 2442766.633333333 *t  359.5770  86.0610 1975-Dec-27 13:26 2442774.059722222  s  271.0867  -0.2893 1976-Jan-11 07:25 2442788.809027778 *r   88.6600  -0.2467 1976-Jan-18 17:49 2442796.242361111 *t  359.9407  85.5588 1976-Jan-26 04:03 2442803.668750000  s  271.4776  -0.2939 1976-Feb-09 21:57 2442818.414583333 *r   88.4633  -0.2507 1976-Feb-17 08:16 2442825.844444444 *t  359.7735  85.4916 1976-Feb-24 18:20 2442833.263888889  s  271.4226  -0.2964 1976-Mar-10 11:49 2442847.992361111 *r   88.7213  -0.2654 1976-Mar-17 21:58 2442855.415277778 *t  359.8975  85.8690 1976-Mar-25 07:52 2442862.827777778  s  270.9500  -0.2970 1976-Apr-09 00:51 2442877.535416667 *r   89.3385  -0.2250 1976-Apr-16 10:45 2442884.947916667 *t  359.8068  86.5636 1976-Apr-23 20:29 2442892.353472222  s  270.2104  -0.3060 1976-May-08 12:48 2442907.033333333 *r   90.1321  -0.2468 1976-May-15 22:37 2442914.442361111 *t  359.6810  87.3698 1976-May-23 08:11 2442921.840972222  s  269.4178  -0.2855 1976-Jun-07 00:05 2442936.503472222 *r   90.8792  -0.2356 1976-Jun-14 09:49 2442943.909027778 *t  359.5953  88.0702 1976-Jun-21 19:18 2442951.304166667  s  268.7795  -0.2649 1976-Jul-06 10:57 2442965.956250000 *r   91.3914  -0.2578 1976-Jul-13 20:46 2442973.365277778 *t  359.0524  88.4873 1976-Jul-21 06:20 2442980.763888889  s  268.4530  -0.3028 1976-Aug-04 21:59 2442995.415972222 *r   91.5358  -0.2367 1976-Aug-12 07:48 2443002.825000000 *t  359.8136  88.5153 1976-Aug-19 17:27 2443010.227083333  s  268.5282  -0.2761 1976-Sep-03 09:26 2443024.893055555 *r   91.2735  -0.2493 1976-Sep-10 19:25 2443032.309027778 *t  359.6059  88.1384 1976-Sep-18 05:14 2443039.718055556  s  268.9890  -0.2961 1976-Oct-02 21:43 2443054.404861111 *r   90.6577  -0.2390 1976-Oct-10 07:52 2443061.827777778 *t  359.2726  87.4427 1976-Oct-17 17:46 2443069.240277778  s  269.7292  -0.2739 1976-Nov-01 10:55 2443083.954861111 *r   89.8457  -0.2373 1976-Nov-08 21:09 2443091.381250000 *t  359.9232  86.6097 1976-Nov-16 07:18 2443098.804166667  s  270.5461  -0.2945 1976-Dec-01 00:57 2443113.539583333 *r   89.0655  -0.2488 1976-Dec-08 11:21 2443120.972916667 *t  359.6254  85.8771 1976-Dec-15 21:35 2443128.399305556  s  271.2018  -0.3083 1976-Dec-30 15:34 2443143.148611111 *r   88.5523  -0.2383 1977-Jan-07 01:58 2443150.581944444 *t  359.6776  85.4701 1977-Jan-14 12:12 2443158.008333333  s  271.4920  -0.3011 1977-Jan-29 06:11 2443172.757638889 *r   88.4692  -0.2462 1977-Feb-05 16:30 2443180.187500000 *t  359.8947  85.5157 1977-Feb-13 02:39 2443187.610416667  s  271.3267  -0.2849 1977-Feb-27 20:18 2443202.345833333 *r   88.8359  -0.2584 1977-Mar-07 06:32 2443209.772222222 *t  359.6884  85.9925 1977-Mar-14 16:31 2443217.188194444  s  270.7637  -0.2915 1977-Mar-29 09:35 2443231.899305556 *r   89.5294  -0.2564 1977-Apr-05 19:39 2443239.318750000 *t  359.6563  86.7454 1977-Apr-13 05:28 2443246.727777778  s  269.9820  -0.2917 1977-Apr-27 21:57 2443261.414583333 *r   90.3393  -0.2300 1977-May-05 07:51 2443268.827083333 *t  359.2915  87.5512 1977-May-12 17:30 2443276.229166667  s  269.2063  -0.2917 1977-May-27 09:24 2443290.891666667 *r   91.0461  -0.2570 1977-Jun-03 19:13 2443298.300694444 *t  359.8877  88.1919 1977-Jun-11 04:47 2443305.699305556  s  268.6428  -0.2694 1977-Jun-25 20:26 2443320.351388889 *r   91.4656  -0.2499 1977-Jul-03 06:15 2443327.760416667 *t  359.1672  88.5060 1977-Jul-10 15:49 2443335.159027778  s  268.4271  -0.3017 1977-Jul-25 07:23 2443349.807638889 *r   91.4971  -0.2470 1977-Aug-01 17:12 2443357.216666667 *t  359.7916  88.4170 1977-Aug-09 02:46 2443364.615277778  s  268.6182  -0.2663 1977-Aug-23 18:40 2443379.277777778 *r   91.1306  -0.2454 1977-Aug-31 04:34 2443386.690277778 *t  359.8501  87.9430 1977-Sep-07 14:18 2443394.095833333  s  269.1663  -0.3003 1977-Sep-22 06:37 2443408.775694444 *r   90.4523  -0.2517 1977-Sep-29 16:41 2443416.195138889 *t  359.5864  87.1978 1977-Oct-07 02:30 2443423.604166667  s  269.9427  -0.2834 1977-Oct-21 19:29 2443438.311805556 *r   89.6349  -0.2483 1977-Oct-29 05:38 2443445.734722222 *t    0.0882  86.3762 1977-Nov-05 15:42 2443453.154166667  s  270.7362  -0.3009 1977-Nov-20 09:16 2443467.886111111 *r   88.9075  -0.2407 1977-Nov-27 19:35 2443475.315972222 *t  359.6768  85.7121 1977-Dec-05 05:44 2443482.738888889  s  271.3170  -0.3015 1977-Dec-19 23:43 2443497.488194444 *r   88.4922  -0.2339 1977-Dec-27 10:07 2443504.921527778 *t  359.4972  85.4109$$EOE*******************************************************************************Column meaning: TIME  Prior to 1962, times are UT1. Dates thereafter are UTC. Any 'b' symbol inthe 1st-column denotes a B.C. date. First-column blank (" ") denotes an A.D.date. Calendar dates prior to 1582-Oct-15 are in the Julian calendar system.Later calendar dates are in the Gregorian system.  Time tags refer to the same instant throughout the solar system, regardlessof where the observer is located. For example, if an observation from thesurface of another body has an output time-tag of 12:31:00 UTC, an Earth-basedtime-scale, it refers to the instant on that body simultaneous to 12:31:00 UTCon Earth.  The Barycentric Dynamical Time scale (TDB) is used internally as defined bythe planetary equations of motion. Conversion between TDB and the selectednon-uniform UT output time-scale has not been determined for UTC times afterthe next July or January 1st. The last known leap-second is used as a constantover future intervals.  NOTE: "n.a." in output means quantity "not available" at the print-time. SOLAR PRESENCE (OBSERVING SITE)  Time tag is followed by a blank, then a solar-presence symbol:        '*'  Daylight (solar upper-limb on or above apparent horizon)        ' '  Night OR geocentric ephemerisINTEFERING BODY PRESENCE WITH TARGET RISE/TRANSIT/SET MARKER (OBSERVING SITE)  The solar-presence symbol is immediately followed by an "interfering body"presence OR target rise/transit/set symbol.        'x'  Upper-limb of interfering body on or above apparent horizon        ' '  Upper-limb of interfering body below apparent horizon OR body               centered ephemeris        'r'  Rise    (target body on or above cut-off RTS elevation)        't'  Transit (target body at or past local maximum RTS elevation)        's'  Set     (target body on or below cut-off RTS elevation)  An "interfering body" is the largest other body in the immediateplanet/satellite system, potentially compromising visual observations due toits brightness. Any such body is identified in the print-out header. RTS MARKERS (TVH)  Rise and set are with respect to the reference ellipsoid true visual horizondefined by the elevation cut-off angle. Horizon dip and yellow-light refraction(Earth only) are considered. Accuracy is < or = to twice the requested searchstep-size.  Azi_(a-appr)_Elev =   Airless apparent azimuth and elevation of target center. Adjusted forlight-time, the gravitational deflection of light, stellar aberration,precession and nutation. Azimuth measured North(0) -> East(90) -> South(180) ->West(270) -> North (360). Elevation is with respect to plane perpendicularto local zenith direction.  TOPOCENTRIC ONLY. Units: DEGREES Computations by ...     Solar System Dynamics Group, Horizons On-Line Ephemeris System     4800 Oak Grove Drive, Jet Propulsion Laboratory     Pasadena, CA  91109   USA     Information: http://ssd.jpl.nasa.gov/     Connect    : telnet://ssd.jpl.nasa.gov:6775  (via browser)                  telnet ssd.jpl.nasa.gov 6775    (via command-line)     Author     : Jon.D.Giorgini@jpl.nasa.gov*******************************************************************************